FLOCK 4G-21             
1 62651U 25009AU  26068.19487675  .00013648  00000+0  49619-3 0  9998
2 62651  97.4032 151.1274 0000465 329.5782  30.5431 15.28381075 63677
STARLINK-33864          
1 63636U 25083C   26068.24102747  .00035938  00000+0  13084-2 0  9996
2 63636  43.0055   8.1442 0002393 264.3777  95.6802 15.27597050 50023
